{
    "links": {
        "self": "http://www.neowsapp.com/rest/v1/neo/54051066?api_key=iIulBulltgU6a56xZRHN4H3l9WmuAYTsLGpBGhQ2"
    },
    "id": "54051066",
    "neo_reference_id": "54051066",
    "name": "(2020 PH3)",
    "designation": "2020 PH3",
    "nasa_jpl_url": "http://ssd.jpl.nasa.gov/sbdb.cgi?sstr=54051066",
    "absolute_magnitude_h": 24.479,
    "estimated_diameter": {
        "kilometers": {
            "estimated_diameter_min": 0.0337874158,
            "estimated_diameter_max": 0.0755509585
        },
        "meters": {
            "estimated_diameter_min": 33.7874158142,
            "estimated_diameter_max": 75.5509585447
        },
        "miles": {
            "estimated_diameter_min": 0.0209945204,
            "estimated_diameter_max": 0.0469451747
        },
        "feet": {
            "estimated_diameter_min": 110.8511053,
            "estimated_diameter_max": 247.8706068318
        }
    },
    "is_potentially_hazardous_asteroid": false,
    "close_approach_data": [
        {
            "close_approach_date": "2020-08-16",
            "close_approach_date_full": "2020-Aug-16 12:52",
            "epoch_date_close_approach": 1597582320000,
            "relative_velocity": {
                "kilometers_per_second": "11.8220684668",
                "kilometers_per_hour": "42559.446480354",
                "miles_per_hour": "26444.7849533066"
            },
            "miss_distance": {
                "astronomical": "0.1445853944",
                "lunar": "56.2437184216",
                "kilometers": "21629667.035349928",
                "miles": "13440051.8722798864"
            },
            "orbiting_body": "Earth"
        }
    ],
    "orbital_data": {
        "orbit_id": "2",
        "orbit_determination_date": "2020-08-19 07:54:59",
        "first_observation_date": "2020-08-13",
        "last_observation_date": "2020-08-19",
        "data_arc_in_days": 6,
        "observations_used": 14,
        "orbit_uncertainty": "9",
        "minimum_orbit_intersection": ".136507",
        "jupiter_tisserand_invariant": "5.146",
        "epoch_osculation": "2459075.5",
        "eccentricity": ".0723034166024929",
        "semi_major_axis": "1.221593101517592",
        "inclination": "23.4629954547019",
        "ascending_node_longitude": "145.2536738885774",
        "orbital_period": "493.160499950152",
        "perihelion_distance": "1.133267746579834",
        "perihelion_argument": "141.6238864047582",
        "aphelion_distance": "1.30991845645535",
        "perihelion_time": "2459031.157056152630",
        "mean_anomaly": "32.36970476481139",
        "mean_motion": ".7299854713351703",
        "equinox": "J2000",
        "orbit_class": {
            "orbit_class_type": "AMO",
            "orbit_class_description": "Near-Earth asteroid orbits similar to that of 1221 Amor",
            "orbit_class_range": "1.017 AU < q (perihelion) < 1.3 AU"
        }
    },
    "is_sentry_object": false
}